{
  "type": "FeatureCollection",
  "features": [
    {
      "type": "Feature",
      "properties": {
        "norad_id": 29486,
        "name": "GPS BIIRM-2 (PRN 31)",
        "group": "gps-ops",
        "lat": 54.42091281397243,
        "lon": -118.79497653385664,
        "alt_km": 19938.43071790501,
        "timestamp": "2025-12-08T15:42:50.049477+00:00",
        "meta_object_name": "GPS BIIRM-2 (PRN 31)",
        "meta_object_id": "2006-042A",
        "meta_epoch": "2025-12-08T04:03:19.247328",
        "meta_mean_motion": 2.00554246,
        "meta_eccentricity": 0.01073661,
        "meta_inclination": 54.6935,
        "meta_ra_of_asc_node": 158.9221,
        "meta_arg_of_pericenter": 51.8493,
        "meta_mean_anomaly": 42.2543,
        "meta_ephemeris_type": 0,
        "meta_classification_type": "U",
        "meta_norad_cat_id": 29486,
        "meta_element_set_no": 999,
        "meta_rev_at_epoch": 14056,
        "meta_bstar": 0,
        "meta_mean_motion_dot": 5.8e-07,
        "meta_mean_motion_ddot": 0,
        "tle_line1": "1 29486U 06042A   25342.16897277  .00000058  00000+0  00000+0 0  9995",
        "tle_line2": "2 29486  54.6935 158.9221 0107366  51.8493  42.2543  2.00554246140568"
      },
      "geometry": {
        "type": "Point",
        "coordinates": [
          -118.79497653385664,
          54.42091281397243
        ]
      }
    },
    {
      "type": "Feature",
      "properties": {
        "norad_id": 29601,
        "name": "GPS BIIRM-3 (PRN 12)",
        "group": "gps-ops",
        "lat": 29.51715433577855,
        "lon": 18.188873457519925,
        "alt_km": 20045.041619231506,
        "timestamp": "2025-12-08T15:42:50.049489+00:00",
        "meta_object_name": "GPS BIIRM-3 (PRN 12)",
        "meta_object_id": "2006-052A",
        "meta_epoch": "2025-12-07T23:03:27.935136",
        "meta_mean_motion": 2.00573134,
        "meta_eccentricity": 0.00876554,
        "meta_inclination": 54.9714,
        "meta_ra_of_asc_node": 221.5879,
        "meta_arg_of_pericenter": 87.3887,
        "meta_mean_anomaly": 273.7008,
        "meta_ephemeris_type": 0,
        "meta_classification_type": "U",
        "meta_norad_cat_id": 29601,
        "meta_element_set_no": 999,
        "meta_rev_at_epoch": 13957,
        "meta_bstar": 0,
        "meta_mean_motion_dot": 2.2e-07,
        "meta_mean_motion_ddot": 0,
        "tle_line1": "1 29601U 06052A   25341.96073999  .00000022  00000+0  00000+0 0  9990",
        "tle_line2": "2 29601  54.9714 221.5879 0087655  87.3887 273.7008  2.00573134139573"
      },
      "geometry": {
        "type": "Point",
        "coordinates": [
          18.188873457519925,
          29.51715433577855
        ]
      }
    },
    {
      "type": "Feature",
      "properties": {
        "norad_id": 32260,
        "name": "GPS BIIRM-4 (PRN 15)",
        "group": "gps-ops",
        "lat": -52.336764783875914,
        "lon": 17.478862032759185,
        "alt_km": 20604.727914401385,
        "timestamp": "2025-12-08T15:42:50.049502+00:00",
        "meta_object_name": "GPS BIIRM-4 (PRN 15)",
        "meta_object_id": "2007-047A",
        "meta_epoch": "2025-12-07T18:25:34.370688",
        "meta_mean_motion": 2.00564615,
        "meta_eccentricity": 0.01643014,
        "meta_inclination": 53.9519,
        "meta_ra_of_asc_node": 87.9639,
        "meta_arg_of_pericenter": 85.1876,
        "meta_mean_anomaly": 276.6737,
        "meta_ephemeris_type": 0,
        "meta_classification_type": "U",
        "meta_norad_cat_id": 32260,
        "meta_element_set_no": 999,
        "meta_rev_at_epoch": 13297,
        "meta_bstar": 0,
        "meta_mean_motion_dot": -1.8e-07,
        "meta_mean_motion_ddot": 0,
        "tle_line1": "1 32260U 07047A   25341.76775892 -.00000018  00000+0  00000+0 0  9995",
        "tle_line2": "2 32260  53.9519  87.9639 0164301  85.1876 276.6737  2.00564615132978"
      },
      "geometry": {
        "type": "Point",
        "coordinates": [
          17.478862032759185,
          -52.336764783875914
        ]
      }
    },
    {
      "type": "Feature",
      "properties": {
        "norad_id": 32384,
        "name": "GPS BIIRM-5 (PRN 29)",
        "group": "gps-ops",
        "lat": 39.67151050315908,
        "lon": -43.01081031490412,
        "alt_km": 20207.402904653867,
        "timestamp": "2025-12-08T15:42:50.049514+00:00",
        "meta_object_name": "GPS BIIRM-5 (PRN 29)",
        "meta_object_id": "2007-062A",
        "meta_epoch": "2025-12-08T07:46:47.506944",
        "meta_mean_motion": 2.00576984,
        "meta_eccentricity": 0.00322211,
        "meta_inclination": 55.1861,
        "meta_ra_of_asc_node": 281.823,
        "meta_arg_of_pericenter": 162.5952,
        "meta_mean_anomaly": 10.0568,
        "meta_ephemeris_type": 0,
        "meta_classification_type": "U",
        "meta_norad_cat_id": 32384,
        "meta_element_set_no": 999,
        "meta_rev_at_epoch": 13168,
        "meta_bstar": 0,
        "meta_mean_motion_dot": -4.5e-07,
        "meta_mean_motion_ddot": 0,
        "tle_line1": "1 32384U 07062A   25342.32416096 -.00000045  00000+0  00000+0 0  9990",
        "tle_line2": "2 32384  55.1861 281.8230 0032221 162.5952  10.0568  2.00576984131682"
      },
      "geometry": {
        "type": "Point",
        "coordinates": [
          -43.01081031490412,
          39.67151050315908
        ]
      }
    },
    {
      "type": "Feature",
      "properties": {
        "norad_id": 32711,
        "name": "GPS BIIRM-6 (PRN 07)",
        "group": "gps-ops",
        "lat": -17.58742019898496,
        "lon": 144.43655103032157,
        "alt_km": 20204.4291968121,
        "timestamp": "2025-12-08T15:42:50.049526+00:00",
        "meta_object_name": "GPS BIIRM-6 (PRN 07)",
        "meta_object_id": "2008-012A",
        "meta_epoch": "2025-12-07T16:30:50.099904",
        "meta_mean_motion": 2.00565328,
        "meta_eccentricity": 0.02022386,
        "meta_inclination": 54.4764,
        "meta_ra_of_asc_node": 157.5746,
        "meta_arg_of_pericenter": 244.892,
        "meta_mean_anomaly": 113.0048,
        "meta_ephemeris_type": 0,
        "meta_classification_type": "U",
        "meta_norad_cat_id": 32711,
        "meta_element_set_no": 999,
        "meta_rev_at_epoch": 12991,
        "meta_bstar": 0,
        "meta_mean_motion_dot": 5.7e-07,
        "meta_mean_motion_ddot": 0,
        "tle_line1": "1 32711U 08012A   25341.68807986  .00000057  00000+0  00000+0 0  9992",
        "tle_line2": "2 32711  54.4764 157.5746 0202238 244.8920 113.0048  2.00565328129917"
      },
      "geometry": {
        "type": "Point",
        "coordinates": [
          144.43655103032157,
          -17.58742019898496
        ]
      }
    },
    {
      "type": "Feature",
      "properties": {
        "norad_id": 35752,
        "name": "GPS BIIRM-8 (PRN 05)",
        "group": "gps-ops",
        "lat": -3.9366814253984517,
        "lon": 32.310714360605786,
        "alt_km": 20173.980636268916,
        "timestamp": "2025-12-08T15:42:50.049538+00:00",
        "meta_object_name": "GPS BIIRM-8 (PRN 05)",
        "meta_object_id": "2009-043A",
        "meta_epoch": "2025-12-08T03:13:53.099904",
        "meta_mean_motion": 2.00565854,
        "meta_eccentricity": 0.00519295,
        "meta_inclination": 56.0878,
        "meta_ra_of_asc_node": 34.9648,
        "meta_arg_of_pericenter": 81.9835,
        "meta_mean_anomaly": 258.3784,
        "meta_ephemeris_type": 0,
        "meta_classification_type": "U",
        "meta_norad_cat_id": 35752,
        "meta_element_set_no": 999,
        "meta_rev_at_epoch": 11952,
        "meta_bstar": 0,
        "meta_mean_motion_dot": -8e-07,
        "meta_mean_motion_ddot": 0,
        "tle_line1": "1 35752U 09043A   25342.13464236 -.00000080  00000+0  00000+0 0  9990",
        "tle_line2": "2 35752  56.0878  34.9648 0051929  81.9835 258.3784  2.00565854119522"
      },
      "geometry": {
        "type": "Point",
        "coordinates": [
          32.310714360605786,
          -3.9366814253984517
        ]
      }
    },
    {
      "type": "Feature",
      "properties": {
        "norad_id": 36585,
        "name": "GPS BIIF-1  (PRN 25)",
        "group": "gps-ops",
        "lat": 47.130091724846785,
        "lon": -14.480123533574172,
        "alt_km": 19962.142176678273,
        "timestamp": "2025-12-08T15:42:50.049550+00:00",
        "meta_object_name": "GPS BIIF-1  (PRN 25)",
        "meta_object_id": "2010-022A",
        "meta_epoch": "2025-12-08T05:43:48.381888",
        "meta_mean_motion": 2.00552915,
        "meta_eccentricity": 0.01259265,
        "meta_inclination": 54.3009,
        "meta_ra_of_asc_node": 216.2555,
        "meta_arg_of_pericenter": 65.0249,
        "meta_mean_anomaly": 109.07,
        "meta_ephemeris_type": 0,
        "meta_classification_type": "U",
        "meta_norad_cat_id": 36585,
        "meta_element_set_no": 999,
        "meta_rev_at_epoch": 11376,
        "meta_bstar": 0,
        "meta_mean_motion_dot": 2.3e-07,
        "meta_mean_motion_ddot": 0,
        "tle_line1": "1 36585U 10022A   25342.23875442  .00000023  00000+0  00000+0 0  9996",
        "tle_line2": "2 36585  54.3009 216.2555 0125926  65.0249 109.0700  2.00552915113761"
      },
      "geometry": {
        "type": "Point",
        "coordinates": [
          -14.480123533574172,
          47.130091724846785
        ]
      }
    }
  ]
}